[{"OBJECT_NAME":"DONGPO 10","OBJECT_ID":"2022-167H","EPOCH":"2026-03-09T22:44:56.137344","MEAN_MOTION":15.322785,"ECCENTRICITY":0.00061655,"INCLINATION":97.685,"RA_OF_ASC_NODE":235.0962,"ARG_OF_PERICENTER":106.9526,"MEAN_ANOMALY":253.2392,"EPHEMERIS_TYPE":0,"CLASSIFICATION_TYPE":"U","NORAD_CAT_ID":54689,"ELEMENT_SET_NO":999,"REV_AT_EPOCH":18015,"BSTAR":0.00049390523,"MEAN_MOTION_DOT":0.00015333,"MEAN_MOTION_DDOT":0},{"OBJECT_NAME":"STARLINK-32163","OBJECT_ID":"2024-131H","EPOCH":"2026-03-09T06:11:52.383552","MEAN_MOTION":15.30181151,"ECCENTRICITY":0.0001361,"INCLINATION":53.1598,"RA_OF_ASC_NODE":54.3553,"ARG_OF_PERICENTER":94.2219,"MEAN_ANOMALY":265.8937,"EPHEMERIS_TYPE":0,"CLASSIFICATION_TYPE":"U","NORAD_CAT_ID":60262,"ELEMENT_SET_NO":999,"REV_AT_EPOCH":9165,"BSTAR":0.00022064839,"MEAN_MOTION_DOT":6.177e-5,"MEAN_MOTION_DDOT":0}]
